[{"OBJECT_NAME":"STARLINK-30783","OBJECT_ID":"2023-162N","EPOCH":"2026-03-09T05:15:40.575168","MEAN_MOTION":15.2756185,"ECCENTRICITY":5.79e-5,"INCLINATION":43.0004,"RA_OF_ASC_NODE":131.8664,"ARG_OF_PERICENTER":38.3391,"MEAN_ANOMALY":321.7502,"EPHEMERIS_TYPE":0,"CLASSIFICATION_TYPE":"U","NORAD_CAT_ID":58130,"ELEMENT_SET_NO":999,"REV_AT_EPOCH":13227,"BSTAR":0.00034331605,"MEAN_MOTION_DOT":9.192e-5,"MEAN_MOTION_DDOT":0},{"OBJECT_NAME":"OBJECT H","OBJECT_ID":"2025-155H","EPOCH":"2026-03-09T22:09:58.611456","MEAN_MOTION":15.27590961,"ECCENTRICITY":0.00081993,"INCLINATION":97.4482,"RA_OF_ASC_NODE":37.3122,"ARG_OF_PERICENTER":152.0629,"MEAN_ANOMALY":208.1051,"EPHEMERIS_TYPE":0,"CLASSIFICATION_TYPE":"U","NORAD_CAT_ID":64883,"ELEMENT_SET_NO":999,"REV_AT_EPOCH":6559,"BSTAR":0.00050403256,"MEAN_MOTION_DOT":0.00013547,"MEAN_MOTION_DDOT":0}]
